GLOBALSTAR M035         
1 25851U 99037A   24120.65048575 -.00000011  00000+0  19749-2 0  9992
2 25851  51.9946 257.1821 0013367  35.1988  99.3667 11.04529803 50566
GLOBALSTAR M032         
1 25852U 99037B   24120.67361031 -.00000050  00000+0  52296-3 0  9998
2 25852  51.9917 110.8578 0009738 190.1604 169.9000 11.19051797 88499
GLOBALSTAR M051         
1 25853U 99037C   24120.90607952 -.00000067  00000+0  11716-3 0  9990
2 25853  51.9807 317.8747 0001547 165.0756 195.0101 11.42195801 85168
GLOBALSTAR M030         
1 25854U 99037D   24120.79266110 -.00000068  00000+0  15234-3 0  9995
2 25854  51.9843 150.5402 0003672  28.2028 331.8987 11.55095103102274
GLOBALSTAR M048         
1 25872U 99041A   24120.64506928 -.00000041  00000+0  79331-3 0  9997
2 25872  51.9365 237.5462 0013897 187.1106 185.2138 11.33845608 78075
GLOBALSTAR M026         
1 25873U 99041B   24120.96399119 -.00000007  00000+0  20956-2 0  9995
2 25873  52.0051  18.7916 0000970 299.7783  73.1692 11.06835588102739
GLOBALSTAR M043         
1 25874U 99041C   24120.84489441 -.00000018  00000+0  14816-2 0  9991
2 25874  51.9422 328.2434 0012361 330.8380 164.7281 11.25680942 76320
GLOBALSTAR M028         
1 25875U 99041D   24120.94053041 -.00000063  00000+0  23845-3 0  9999
2 25875  51.9645 345.2650 0062631 253.8664 105.5296 12.50554271138503
